{
  "type": "FeatureCollection",
  "features": [
    {
      "type": "Feature",
      "properties": {
        "norad_id": 29740,
        "name": "FENGYUN 1C DEB",
        "group": "fengyun-1c-debris",
        "lat": -55.75169312098218,
        "lon": -143.97166206475708,
        "alt_km": 1932.7584371499806,
        "timestamp": "2025-12-18T14:52:08.296705+00:00",
        "meta_object_name": "FENGYUN 1C DEB",
        "meta_object_id": "1999-025AE",
        "meta_epoch": "2025-12-18T01:19:14.913408",
        "meta_mean_motion": 12.08330229,
        "meta_eccentricity": 0.09744577,
        "meta_inclination": 99.0432,
        "meta_ra_of_asc_node": 202.0987,
        "meta_arg_of_pericenter": 188.0877,
        "meta_mean_anomaly": 170.3412,
        "meta_ephemeris_type": 0,
        "meta_classification_type": "U",
        "meta_norad_cat_id": 29740,
        "meta_element_set_no": 999,
        "meta_rev_at_epoch": 82999,
        "meta_bstar": -0.00095493284,
        "meta_mean_motion_dot": -3.94e-06,
        "meta_mean_motion_ddot": 0,
        "tle_line1": "1 29740U 99025AE  25352.05503372 -.00000394  00000+0 -95493-3 0  9999",
        "tle_line2": "2 29740  99.0432 202.0987 0974457 188.0877 170.3412 12.08330229829999"
      },
      "geometry": {
        "type": "Point",
        "coordinates": [
          -143.97166206475708,
          -55.75169312098218
        ]
      }
    },
    {
      "type": "Feature",
      "properties": {
        "norad_id": 29741,
        "name": "FENGYUN 1C DEB",
        "group": "fengyun-1c-debris",
        "lat": -0.6679038990004272,
        "lon": -134.60854141524794,
        "alt_km": 1130.5942970406759,
        "timestamp": "2025-12-18T14:52:08.296716+00:00",
        "meta_object_name": "FENGYUN 1C DEB",
        "meta_object_id": "1999-025AF",
        "meta_epoch": "2025-12-18T05:25:56.553600",
        "meta_mean_motion": 12.0095798,
        "meta_eccentricity": 0.10253495,
        "meta_inclination": 99.1742,
        "meta_ra_of_asc_node": 225.002,
        "meta_arg_of_pericenter": 53.1395,
        "meta_mean_anomaly": 56.0702,
        "meta_ephemeris_type": 0,
        "meta_classification_type": "U",
        "meta_norad_cat_id": 29741,
        "meta_element_set_no": 999,
        "meta_rev_at_epoch": 52249,
        "meta_bstar": 0.0053910814,
        "meta_mean_motion_dot": 2.098e-05,
        "meta_mean_motion_ddot": 0,
        "tle_line1": "1 29741U 99025AF  25352.22634900  .00002098  00000+0  53911-2 0  9990",
        "tle_line2": "2 29741  99.1742 225.0020 1025349  53.1395  56.0702 12.00957980522491"
      },
      "geometry": {
        "type": "Point",
        "coordinates": [
          -134.60854141524794,
          -0.6679038990004272
        ]
      }
    },
    {
      "type": "Feature",
      "properties": {
        "norad_id": 29748,
        "name": "FENGYUN 1C DEB",
        "group": "fengyun-1c-debris",
        "lat": 71.64073677259506,
        "lon": -109.31160391801953,
        "alt_km": 1468.0336909841808,
        "timestamp": "2025-12-18T14:52:08.296726+00:00",
        "meta_object_name": "FENGYUN 1C DEB",
        "meta_object_id": "1999-025AN",
        "meta_epoch": "2025-12-17T02:11:59.106912",
        "meta_mean_motion": 11.90305771,
        "meta_eccentricity": 0.08593217,
        "meta_inclination": 99.7878,
        "meta_ra_of_asc_node": 280.891,
        "meta_arg_of_pericenter": 3.5817,
        "meta_mean_anomaly": 357.0888,
        "meta_ephemeris_type": 0,
        "meta_classification_type": "U",
        "meta_norad_cat_id": 29748,
        "meta_element_set_no": 999,
        "meta_rev_at_epoch": 78785,
        "meta_bstar": 0.11928977,
        "meta_mean_motion_dot": 0.00024206,
        "meta_mean_motion_ddot": 0,
        "tle_line1": "1 29748U 99025AN  25351.09165633  .00024206  00000+0  11929+0 0  9998",
        "tle_line2": "2 29748  99.7878 280.8910 0859321   3.5817 357.0888 11.90305771787858"
      },
      "geometry": {
        "type": "Point",
        "coordinates": [
          -109.31160391801953,
          71.64073677259506
        ]
      }
    },
    {
      "type": "Feature",
      "properties": {
        "norad_id": 29750,
        "name": "FENGYUN 1C DEB",
        "group": "fengyun-1c-debris",
        "lat": -27.12774460764016,
        "lon": -162.95198177885425,
        "alt_km": 860.4690815586555,
        "timestamp": "2025-12-18T14:52:08.296737+00:00",
        "meta_object_name": "FENGYUN 1C DEB",
        "meta_object_id": "1999-025AQ",
        "meta_epoch": "2025-12-18T02:15:33.047136",
        "meta_mean_motion": 14.09648642,
        "meta_eccentricity": 0.00350413,
        "meta_inclination": 98.7541,
        "meta_ra_of_asc_node": 21.065,
        "meta_arg_of_pericenter": 285.8704,
        "meta_mean_anomaly": 137.0657,
        "meta_ephemeris_type": 0,
        "meta_classification_type": "U",
        "meta_norad_cat_id": 29750,
        "meta_element_set_no": 999,
        "meta_rev_at_epoch": 97149,
        "meta_bstar": 0.00026692098,
        "meta_mean_motion_dot": 4.27e-06,
        "meta_mean_motion_ddot": 0,
        "tle_line1": "1 29750U 99025AQ  25352.09413249  .00000427  00000+0  26692-3 0  9997",
        "tle_line2": "2 29750  98.7541  21.0650 0035041 285.8704 137.0657 14.09648642971493"
      },
      "geometry": {
        "type": "Point",
        "coordinates": [
          -162.95198177885425,
          -27.12774460764016
        ]
      }
    },
    {
      "type": "Feature",
      "properties": {
        "norad_id": 29751,
        "name": "FENGYUN 1C DEB",
        "group": "fengyun-1c-debris",
        "lat": -76.638409720903,
        "lon": 59.57031347834451,
        "alt_km": 880.4194578233437,
        "timestamp": "2025-12-18T14:52:08.296748+00:00",
        "meta_object_name": "FENGYUN 1C DEB",
        "meta_object_id": "1999-025AR",
        "meta_epoch": "2025-12-17T13:00:29.340000",
        "meta_mean_motion": 14.23633045,
        "meta_eccentricity": 0.00900544,
        "meta_inclination": 98.541,
        "meta_ra_of_asc_node": 19.2755,
        "meta_arg_of_pericenter": 125.3693,
        "meta_mean_anomaly": 35.2646,
        "meta_ephemeris_type": 0,
        "meta_classification_type": "U",
        "meta_norad_cat_id": 29751,
        "meta_element_set_no": 999,
        "meta_rev_at_epoch": 98141,
        "meta_bstar": 0.00014303566,
        "meta_mean_motion_dot": 2.98e-06,
        "meta_mean_motion_ddot": 0,
        "tle_line1": "1 29751U 99025AR  25351.54200625  .00000298  00000+0  14304-3 0  9992",
        "tle_line2": "2 29751  98.5410  19.2755 0090054 125.3693  35.2646 14.23633045981419"
      },
      "geometry": {
        "type": "Point",
        "coordinates": [
          59.57031347834451,
          -76.638409720903
        ]
      }
    },
    {
      "type": "Feature",
      "properties": {
        "norad_id": 29754,
        "name": "FENGYUN 1C DEB",
        "group": "fengyun-1c-debris",
        "lat": -39.47401136600274,
        "lon": 102.77578148793046,
        "alt_km": 837.8649872618762,
        "timestamp": "2025-12-18T14:52:08.296758+00:00",
        "meta_object_name": "FENGYUN 1C DEB",
        "meta_object_id": "1999-025AU",
        "meta_epoch": "2025-12-17T19:22:00.428160",
        "meta_mean_motion": 14.19169784,
        "meta_eccentricity": 0.00362388,
        "meta_inclination": 98.8845,
        "meta_ra_of_asc_node": 94.5598,
        "meta_arg_of_pericenter": 224.9501,
        "meta_mean_anomaly": 265.4683,
        "meta_ephemeris_type": 0,
        "meta_classification_type": "U",
        "meta_norad_cat_id": 29754,
        "meta_element_set_no": 999,
        "meta_rev_at_epoch": 97426,
        "meta_bstar": 0.00075656673,
        "meta_mean_motion_dot": 1.549e-05,
        "meta_mean_motion_ddot": 0,
        "tle_line1": "1 29754U 99025AU  25351.80694940  .00001549  00000+0  75657-3 0  9999",
        "tle_line2": "2 29754  98.8845  94.5598 0036238 224.9501 265.4683 14.19169784974268"
      },
      "geometry": {
        "type": "Point",
        "coordinates": [
          102.77578148793046,
          -39.47401136600274
        ]
      }
    },
    {
      "type": "Feature",
      "properties": {
        "norad_id": 29758,
        "name": "FENGYUN 1C DEB",
        "group": "fengyun-1c-debris",
        "lat": 21.93678666295474,
        "lon": 104.94218063712773,
        "alt_km": 755.3763483472758,
        "timestamp": "2025-12-18T14:52:08.296768+00:00",
        "meta_object_name": "FENGYUN 1C DEB",
        "meta_object_id": "1999-025AY",
        "meta_epoch": "2025-12-17T07:21:32.203872",
        "meta_mean_motion": 14.41056345,
        "meta_eccentricity": 0.00215821,
        "meta_inclination": 98.8553,
        "meta_ra_of_asc_node": 107.1827,
        "meta_arg_of_pericenter": 293.4679,
        "meta_mean_anomaly": 121.3072,
        "meta_ephemeris_type": 0,
        "meta_classification_type": "U",
        "meta_norad_cat_id": 29758,
        "meta_element_set_no": 999,
        "meta_rev_at_epoch": 97737,
        "meta_bstar": 0.0018988131,
        "meta_mean_motion_dot": 6.084e-05,
        "meta_mean_motion_ddot": 0,
        "tle_line1": "1 29758U 99025AY  25351.30662273  .00006084  00000+0  18988-2 0  9994",
        "tle_line2": "2 29758  98.8553 107.1827 0021582 293.4679 121.3072 14.41056345977377"
      },
      "geometry": {
        "type": "Point",
        "coordinates": [
          104.94218063712773,
          21.93678666295474
        ]
      }
    }
  ]
}